satname,norad_id,inclination_deg,eccentricity,mean_motion_rev_per_day,perigee_km,apogee_km,l1,l2
STARLINK-1184,45098,53.0547,0.0004147,15.08864882,536.7985222314383,542.5361491474596,1 45098U 20006BG  26034.30545575  .00028877  00000+0  18234-2 0  9994,2 45098  53.0547  40.5465 0004147  34.8844 325.2417 15.08864882331846
STARLINK-1193,45100,53.0547,0.0003789,15.45999826,425.8628519770491,431.0208774407256,1 45100U 20006BJ  26034.66668981  .00071107  00000+0  14297-2 0  9993,2 45100  53.0547  33.6812 0003789  72.8600 266.6894 15.45999826  5812
STARLINK-1143,45179,53.049,0.0003297,15.5605911,396.8412266558371,401.3101206928586,1 45179U 20012B   26034.51729469  .00104930  00000+0  14657-2 0  9990,2 45179  53.0490 136.0314 0003297 302.5594  57.5097 15.56059110330592
STARLINK-1202,45183,53.1573,0.0001047,15.29364111,476.9942126016049,478.4298273863924,1 45183U 20012F   26033.87371570  .00001701  00000+0  71241-4 0  9995,2 45183  53.1573 200.9456 0001047 227.5268 132.5644 15.29364111329627
STARLINK-1216,45185,53.1608,0.000126,15.30202675,474.34356100875357,476.0706037175096,1 45185U 20012H   26034.45407956 -.00000216  00000+0  48362-5 0  9990,2 45185  53.1608 198.2476 0001260  77.0989 283.0152 15.30202675329651
STARLINK-1225,45187,53.1613,0.0001134,15.3018993,474.46796325477226,476.0223103233966,1 45187U 20012K   26034.66668981 -.00010365  00000+0 -33843-3 0  9995,2 45187  53.1613 197.7008 0001134  68.2220  40.7795 15.30189930  5799
STARLINK-1230,45189,53.1598,0.0001149,15.3018384,474.4758649942569,476.0507763879514,1 45189U 20012M   26034.66668981 -.00011122  00000+0 -36413-3 0  9995,2 45189  53.1598 197.7613 0001149  84.7201 331.9604 15.30183840  5690
STARLINK-1234,45190,53.0483,0.0008559,15.54469503,397.8905870766039,409.49972736333257,1 45190U 20012N   26034.52979423  .00116565  00000+0  17207-2 0  9992,2 45190  53.0483 131.2681 0008559 203.5846 156.4772 15.54469503330551
STARLINK-1269,45197,53.1605,0.0001667,15.30183327,474.1223903552227,476.4073145328275,1 45197U 20012V   26034.66668981 -.00008728  00000+0 -28302-3 0  9990,2 45197  53.1605 197.6197 0001667  96.8431 337.4047 15.30183327  5746
STARLINK-1154,45198,53.051,0.0005715,15.40844862,439.7159199529333,447.51318197568526,1 45198U 20012W   26034.36429009  .00085156  00000+0  20305-2 0  9996,2 45198  53.0510 173.0701 0005715 317.7799  42.2764 15.40844862329992
STARLINK-1199,45201,53.0561,0.000128,15.06397084,546.3340493133437,548.1069408320818,1 45201U 20012Z   26034.43308101  .00003010  00000+0  22087-3 0  9997,2 45201  53.0561 180.4023 0001280  90.5637 269.5498 15.06397084329957
STARLINK-1209,45206,53.0488,0.0010872,15.44807571,424.5396257964094,439.34746493425155,1 45206U 20012AE  26034.51789568  .00088704  00000+0  18479-2 0  9993,2 45206  53.0488 136.8914 0010872 182.7674 177.3274 15.44807571329627
STARLINK-1210,45207,53.011,0.000793,15.90319467,296.09131438814256,306.68504132021917,1 45207U 20012AF  26034.66668981  .00294111  42973-4  95151-3 0  9999,2 45207  53.0110  74.9046 0007930  17.6921 276.6377 15.90319467  6004
STARLINK-1231,45212,53.05,8.32e-05,15.18444163,509.96900682972864,511.1152830394449,1 45212U 20012AL  26034.54539993  .00054128  00000+0  25922-2 0  9992,2 45212  53.0500 172.2445 0000832 283.0854  77.0048 15.18444163330039
STARLINK-1271,45217,53.0558,0.0001363,15.06421343,546.2022293968166,548.0900615822775,1 45217U 20012AR  26034.41834235  .00006392  00000+0  44739-3 0  9998,2 45217  53.0558 180.4693 0001363  92.0905 268.0240 15.06421343329955
STARLINK-1191,45222,53.162,0.0001469,15.31037552,471.70904000430164,473.7218204483024,1 45222U 20012AW  26034.52157150  .00000890  00000+0  41206-4 0  9994,2 45222  53.1620 157.6598 0001469  90.3690 269.7479 15.31037552330284
STARLINK-1212,45223,53.0537,0.0001438,15.41960734,439.3425242772346,441.30351337864977,1 45223U 20012AX  26034.60352245  .00041396  00000+0  96188-3 0  9990,2 45223  53.0537 152.8183 0001438 339.6924  20.4023 15.41960734330367
STARLINK-1215,45225,53.1578,0.0001563,15.29818142,475.2841085606551,477.42682290544235,1 45225U 20012AZ  26034.49597975  .00101495  00000+0  34326-2 0  9992,2 45225  53.1578 157.1285 0001563  79.6468 280.4708 15.29818142330245
STARLINK-1221,45227,53.0666,0.0001735,15.40583605,443.2020574850385,445.5694728845583,1 45227U 20012BB  26034.47878792  .00016594  00000+0  41074-3 0  9995,2 45227  53.0666  71.5630 0001735 286.1563  73.9250 15.40583605331434
STARLINK-1222,45228,53.057,0.0001022,15.46594008,426.00296412116586,427.3938724806658,1 45228U 20012BC  26034.53721042  .00025994  00000+0  52058-3 0  9996,2 45228  53.0570 146.2402 0001022  47.4242 312.6851 15.46594008330330
STARLINK-1226,45229,53.1625,0.0002941,15.30624715,471.93204224898545,475.96243819908614,1 45229U 20012BD  26034.53832691 -.00123644  00000+0 -41758-2 0  9997,2 45229  53.1625 157.3840 0002941   2.6039 357.4977 15.30624715330181
STARLINK-1227,45230,53.1587,0.0001191,15.31038243,471.89743262746833,473.5293051853432,1 45230U 20012BE  26034.50057331  .00009696  00000+0  33047-3 0  9997,2 45230  53.1587 157.8736 0001191  86.1448 273.9690 15.31038243330298
STARLINK-1246,45235,53.156,0.0001133,15.29367555,476.92496095329534,478.4784940089421,1 45235U 20012BK  26034.00002315  .00017928  00000+0  63189-3 0  9996,2 45235  53.1560 200.3453 0001133  80.8392 244.8905 15.29367555  5797
STARLINK-1270,45237,53.0519,0.000136,15.41275634,441.41582960809137,443.2710002809554,1 45237U 20012BM  26034.53588592  .00022288  00000+0  53557-3 0  9995,2 45237  53.0519 149.9839 0001360 264.2429  95.8420 15.41275634330392
STARLINK-1279,45360,53.0469,0.0008203,15.50041739,411.03036270376106,422.1778149340771,1 45360U 20019A   26033.38460069  .00091266  00000+0  15865-2 0  9990,2 45360  53.0469 269.0863 0008203  99.7459 260.4476 15.50041739325180
STARLINK-1301,45361,53.0448,0.001028,15.56256495,391.53622563412773,405.46899667466187,1 45361U 20019B   26034.65945509  .00102485  00000+0  14190-2 0  9995,2 45361  53.0448 270.0593 0010280  92.8595 267.3592 15.56256495325293
STARLINK-1262,45366,53.0547,0.0001137,15.06396441,546.4350524109041,548.0098791534228,1 45366U 20019G   26034.52339307  .00001719  00000+0  13430-3 0  9994,2 45366  53.0547 319.9957 0001137  98.6653 261.4465 15.06396441324581
STARLINK-1273,45367,53.0548,0.0001739,15.40138179,444.5144719952441,446.8878028994486,1 45367U 20019H   26034.66668981  .00078248  00000+0  19131-2 0  9997,2 45367  53.0548 316.1683 0001739 107.6769  26.7641 15.40138179  5747
STARLINK-1276,45368,53.0545,0.0001449,15.06390205,546.2380910092006,548.2450657212112,1 45368U 20019J   26034.11795120  .00000133  00000+0  27805-4 0  9991,2 45368  53.0545 321.8195 0001449  83.8079 276.3075 15.06390205324529
STARLINK-1277,45369,53.0554,0.0001836,15.4367621,434.01960485900963,436.5214881100783,1 45369U 20019K   26034.49338449  .00055567  00000+0  12137-2 0  9991,2 45369  53.0554 315.6720 0001836  65.1436 294.9760 15.43676210324649
STARLINK-1281,45370,53.0535,0.0001408,15.06407555,546.2133172314207,548.1634888649205,1 45370U 20019L   26034.50495189  .00002568  00000+0  19122-3 0  9995,2 45370  53.0535 320.0820 0001408  86.0082 274.1068 15.06407555324582
STARLINK-1300,45374,53.0556,0.000186,15.0640519,545.9075395082855,548.4837632546005,1 45374U 20019Q   26034.52708509  .00003022  00000+0  22167-3 0  9993,2 45374  53.0556 319.9814 0001860  76.8706 283.2491 15.06405190324585
STARLINK-1302,45375,53.0544,9.12e-05,15.43677416,434.6456153837753,435.8883802729779,1 45375U 20019R   26034.47015636  .00073015  00000+0  15883-2 0  9995,2 45375  53.0544 315.2644 0000912 105.5920 254.5186 15.43677416324640
STARLINK-1304,45376,53.0555,0.0005405,15.4249421,435.0662778360329,442.43533355399086,1 45376U 20019S   26033.19963559  .00073279  00000+0  16579-2 0  9995,2 45376  53.0555 318.5448 0005405 101.6720 258.4892 15.42494210324485
STARLINK-1305,45377,53.049,0.0006274,15.4622622,423.50741795718295,432.047479407388,1 45377U 20019T   26033.75143368  .00092780  00000+0  18425-2 0  9996,2 45377  53.0490 299.7996 0006274  61.0821 299.0814 15.46226220324807
STARLINK-1319,45379,53.0504,0.0007152,15.52060264,405.8561799602676,415.5669489468619,1 45379U 20019V   26034.66668981  .00118925  00000+0  19156-2 0  9994,2 45379  53.0504 294.7010 0007152  82.5455   9.6897 15.52060264  5919
STARLINK-1266,45383,53.0537,0.0002009,15.41425956,440.52983382610546,443.2701246843708,1 45383U 20019Z   26033.16342009  .00076439  00000+0  17916-2 0  9998,2 45383  53.0537 301.6350 0002009 110.1003 250.0217 15.41425956324719
STARLINK-1267,45384,53.0549,0.0007903,15.43612283,430.07387370929973,440.843443006901,1 45384U 20019AA  26034.11318136  .00081538  00000+0  17729-2 0  9997,2 45384  53.0549 292.0717 0007903 113.8163 246.3672 15.43612283324938
STARLINK-1272,45386,53.0466,0.000744,15.49200715,414.00588447564405,424.12011807754334,1 45386U 20019AC  26034.36305607  .00085700  00000+0  15364-2 0  9993,2 45386  53.0466 275.2092 0007440  83.4180 276.7674 15.49200715325191
STARLINK-1274,45387,53.03,0.0010997,15.42112791,432.377029991143,447.3725651387076,1 45387U 20019AD  26034.36644227  .00079104  00000+0  18078-2 0  9994,2 45387  53.0300 266.4039 0010997 114.1862 246.0293 15.42112791325312
STARLINK-1280,45388,53.0477,0.0007392,15.57875466,388.80104301152005,398.81268481993357,1 45388U 20019AE  26034.09851574  .00103178  00000+0  13463-2 0  9992,2 45388  53.0477 291.4921 0007392  78.2976 281.8865 15.57875466324937
STARLINK-1283,45389,53.048,0.0012711,15.48910467,411.2711192382103,428.553119709738,1 45389U 20019AF  26034.08814586  .00086320  00000+0  15601-2 0  9999,2 45389  53.0480 276.6859 0012711 110.5986 249.6386 15.48910467325155
STARLINK-1284,45390,53.0542,0.0003089,15.45401909,428.0943035382443,432.30049252934896,1 45390U 20019AG  26033.11659705  .00077116  00000+0  15807-2 0  9995,2 45390  53.0542 301.3050 0003089 105.3202 254.8146 15.45401909324712
